NORAD_CAT_ID,OBJECT_NAME,OBJECT_TYPE,EPOCH,MEAN_MOTION,ECCENTRICITY,INCLINATION,RA_OF_ASC_NODE,ARG_OF_PERICENTER,MEAN_ANOMALY,BSTAR,MEAN_MOTION_DOT,MEAN_MOTION_DDOT,TLE_LINE0,TLE_LINE1,TLE_LINE2,SEMIMAJOR_AXIS,PERIOD,APOGEE,PERIGEE,DECAYED
51782.0,STARLINK-3616,PAYLOAD,2024-02-15 11:01:18,15.072024,0.0001684,53.2172,130.585,112.6841,247.4329,-2.5998e-06,-3.23e-06,0.0,0 STARLINK-3616,1 51782U 22017Q   24046.45924015 -.00000323  00000-0 -25998-5 0  9999,2 51782  53.2172 130.5850 0001684 112.6841 247.4329 15.07202400110205,6922.89,95.541,545.921,543.59,0.0
51782.0,STARLINK-3616,PAYLOAD,2024-02-15 12:36:47,15.0720259,0.0001606,53.2176,130.2886,106.8148,253.302,3.1024e-05,1.89e-06,0.0,0 STARLINK-3616,1 51782U 22017Q   24046.52555341  .00000189  00000-0  31024-4 0  9993,2 51782  53.2176 130.2886 0001606 106.8148 253.3020 15.07202590108485,6922.89,95.541,545.867,543.643,0.0
51782.0,STARLINK-3616,PAYLOAD,2024-02-15 22:09:43,15.07207997,0.0001478,53.2171,128.5065,104.3073,255.8083,0.00012292,1.588e-05,0.0,0 STARLINK-3616,1 51782U 22017Q   24046.92342206  .00001588  00000-0  12292-3 0  9990,2 51782  53.2171 128.5065 0001478 104.3073 255.8083 15.07207997108545,6922.873,95.541,545.761,543.715,0.0
51782.0,STARLINK-3616,PAYLOAD,2024-02-16 12:29:07,15.07214217,0.000147,53.2163,125.8327,102.6663,257.4493,0.00020935,2.905e-05,0.0,0 STARLINK-3616,1 51782U 22017Q   24047.52022592  .00002905  00000-0  20935-3 0  9997,2 51782  53.2163 125.8327 0001470 102.6663 257.4493 15.07214217110364,6922.854,95.541,545.737,543.702,0.0
51782.0,STARLINK-3616,PAYLOAD,2024-02-17 10:45:57,15.07202343,0.0001496,53.2172,121.6751,97.9084,262.2077,-0.00019463,-3.245e-05,0.0,0 STARLINK-3616,1 51782U 22017Q   24048.44858585 -.00003245  00000-0 -19463-3 0  9992,2 51782  53.2172 121.6751 0001496  97.9084 262.2077 15.07202343110505,6922.891,95.541,545.791,543.72,0.0
51782.0,STARLINK-3616,PAYLOAD,2024-02-17 13:56:56,15.07195998,0.0001582,53.2171,121.0811,83.7934,276.3238,-0.00030911,-4.984e-05,0.0,0 STARLINK-3616,1 51782U 22017Q   24048.58121260 -.00004984  00000-0 -30911-3 0  9992,2 51782  53.2171 121.0811 0001582  83.7934 276.3238 15.07195998108798,6922.91,95.542,545.87,543.68,0.0
51782.0,STARLINK-3616,PAYLOAD,2024-02-17 21:54:23,15.07191911,0.0001525,53.217,119.5956,89.8443,270.2723,-0.00035544,-5.688e-05,0.0,0 STARLINK-3616,1 51782U 22017Q   24048.91277502 -.00005688  00000-0 -35544-3 0  9999,2 51782  53.2170 119.5956 0001525  89.8443 270.2723 15.07191911108847,6922.923,95.542,545.843,543.732,0.0
51782.0,STARLINK-3616,PAYLOAD,2024-02-18 04:16:21,15.07189959,0.0001347,53.2153,118.4069,90.4169,269.6977,-0.00028771,-4.658e-05,0.0,0 STARLINK-3616,1 51782U 22017Q   24049.17802499 -.00004658  00000-0 -28771-3 0  9997,2 51782  53.2153 118.4069 0001347  90.4169 269.6977 15.07189959110616,6922.929,95.542,545.726,543.861,0.0
51782.0,STARLINK-3616,PAYLOAD,2024-02-18 12:13:47,15.0720011,0.0001388,53.2152,116.9214,90.5516,269.5634,-4.3735e-05,-9.49e-06,0.0,0 STARLINK-3616,1 51782U 22017Q   24049.50958293 -.00000949  00000-0 -43735-4 0  9995,2 51782  53.2152 116.9214 0001388  90.5516 269.5634 15.07200110110669,6922.897,95.541,545.723,543.802,0.0
51782.0,STARLINK-3616,PAYLOAD,2024-02-18 21:46:44,15.0719915,0.0001299,53.2146,115.1391,94.2517,265.8623,1.2652e-06,-2.64e-06,0.0,0 STARLINK-3616,1 51782U 22017Q   24049.90745942 -.00000264  00000-0  12652-5 0  9998,2 51782  53.2146 115.1391 0001299  94.2517 265.8623 15.07199150108993,6922.9,95.541,545.665,543.866,0.0
51782.0,STARLINK-3616,PAYLOAD,2024-02-19 04:08:42,15.07192526,0.0001401,53.2155,113.9508,94.5951,265.52,0.00032972,4.737e-05,0.0,0 STARLINK-3616,1 51782U 22017Q   24050.17271262  .00004737  00000-0  32972-3 0  9991,2 51782  53.2155 113.9508 0001401  94.5951 265.5200 15.07192526110765,6922.921,95.542,545.756,543.816,0.0
51782.0,STARLINK-3616,PAYLOAD,2024-02-19 10:30:39,15.07199196,0.000142,53.2153,112.7644,89.2347,270.8808,0.00037614,5.446e-05,0.0,0 STARLINK-3616,1 51782U 22017Q   24050.43795888  .00005446  00000-0  37614-3 0  9991,2 51782  53.2153 112.7644 0001420  89.2347 270.8808 15.07199196109077,6922.9,95.541,545.748,543.782,0.0
51782.0,STARLINK-3616,PAYLOAD,2024-02-19 21:39:05,15.07203574,0.0001433,53.2146,110.6859,89.2609,270.8547,0.0003308,4.755e-05,0.0,0 STARLINK-3616,1 51782U 22017Q   24050.90214269  .00004755  00000-0  33080-3 0  9997,2 51782  53.2146 110.6859 0001433  89.2609 270.8547 15.07203574109143,6922.887,95.541,545.744,543.76,0.0
51782.0,STARLINK-3616,PAYLOAD,2024-02-20 10:23:00,15.07203939,0.0001491,53.2164,108.3106,91.3861,268.7301,0.00028861,4.112e-05,0.0,0 STARLINK-3616,1 51782U 22017Q   24051.43263994  .00004112  00000-0  28861-3 0  9993,2 51782  53.2164 108.3106 0001491  91.3861 268.7301 15.07203939110950,6922.886,95.541,545.783,543.718,0.0
51782.0,STARLINK-3616,PAYLOAD,2024-02-21 10:15:19,15.07212948,0.0001642,53.2163,103.8563,93.133,266.9849,0.00016456,2.223e-05,0.0,0 STARLINK-3616,1 51782U 22017Q   24052.42731236  .00002223  00000-0  16456-3 0  9990,2 51782  53.2163 103.8563 0001642  93.1330 266.9849 15.07212948109376,6922.858,95.541,545.86,543.586,0.0
51782.0,STARLINK-3616,PAYLOAD,2024-02-21 19:48:10,15.07309953,0.0001269,53.2164,102.0744,96.5945,263.5191,0.0014433,0.00021817,0.0,0 STARLINK-3616,1 51782U 22017Q   24052.82511579  .00021817  00000-0  14433-2 0  9992,2 51782  53.2164 102.0744 0001269  96.5945 263.5191 15.07309953111169,6922.561,95.534,545.305,543.548,0.0
51782.0,STARLINK-3616,PAYLOAD,2024-02-22 03:45:24,15.07510516,0.0001105,53.2159,100.5894,68.889,291.2219,0.0040578,0.0006255,0.0,0 STARLINK-3616,1 51782U 22017Q   24053.15653417  .00062550  00000-0  40578-2 0  9995,2 51782  53.2159 100.5894 0001105  68.8890 291.2219 15.07510516111216,6921.947,95.522,544.577,543.047,0.0
51782.0,STARLINK-3616,PAYLOAD,2024-02-22 10:06:50,15.08057631,6.28e-05,53.2156,99.3984,325.5223,34.5728,0.01137,0.00181452,0.0,0 STARLINK-3616,1 51782U 22017Q   24053.42142249  .00181452  00000-0  11370-1 0  9991,2 51782  53.2156  99.3984 0000628 325.5223  34.5728 15.08057631111252,6920.273,95.487,542.572,541.703,0.0
51782.0,STARLINK-3616,PAYLOAD,2024-02-22 22:00:00,15.08704717,0.0001492,53.215,97.1799,95.2884,74.1444,0.011624,0.00189015,0.0,0 STARLINK-3616,1 51782U 22017Q   24053.91667824  .00189015  00000-0  11624-1 0  9991,2 51782  53.2150  97.1799 0001492  95.2884  74.1444 15.08704717111338,6918.294,95.446,541.191,539.127,0.0
51782.0,STARLINK-3616,PAYLOAD,2024-02-23 06:00:00,15.08846061,0.0001625,53.2151,95.6843,94.3595,86.5835,-0.0017691,-0.00028338,0.0,0 STARLINK-3616,1 51782U 22017Q   24054.25001157 -.00028338  00000-0 -17691-2 0  9993,2 51782  53.2151  95.6843 0001625  94.3595  86.5835 15.08846061111384,6917.862,95.437,540.851,538.603,0.0
51782.0,STARLINK-3616,PAYLOAD,2024-02-23 14:00:01,15.08807748,0.0001596,53.2145,94.1889,84.7183,107.8245,0.0025357,0.00040263,0.0,0 STARLINK-3616,1 51782U 22017Q   24054.58334491  .00040263  00000-0  25357-2 0  9996,2 51782  53.2145  94.1889 0001596  84.7183 107.8245 15.08807748  5815,6917.979,95.44,540.948,538.74,0.0
51782.0,STARLINK-3616,PAYLOAD,2024-02-23 22:00:01,15.08812771,0.0001573,53.2144,92.6906,92.831,111.3554,0.0027367,0.00043503,0.0,0 STARLINK-3616,1 51782U 22017Q   24054.91668981  .00043503  00000-0  27367-2 0  9990,2 51782  53.2144  92.6906 0001573  92.8310 111.3554 15.08812771111480,6917.964,95.439,540.917,538.74,0.0
51782.0,STARLINK-3616,PAYLOAD,2024-02-24 14:00:01,15.08814382,0.0001487,53.214,89.6993,81.9562,145.4339,0.0011269,0.0001768,0.0,0 STARLINK-3616,1 51782U 22017Q   24055.58335648  .00017680  00000-0  11269-2 0  9996,2 51782  53.2140  89.6993 0001487  81.9562 145.4339 15.08814382111580,6917.959,95.439,540.852,538.795,0.0
51782.0,STARLINK-3616,PAYLOAD,2024-02-24 22:00:00,15.08808549,0.0001473,53.2139,88.201,92.5347,146.3643,0.0031146,0.00049587,0.0,0 STARLINK-3616,1 51782U 22017Q   24055.91667824  .00049587  00000-0  31146-2 0  9994,2 51782  53.2139  88.2010 0001473  92.5347 146.3643 15.08808549  5811,6917.977,95.44,540.861,538.823,0.0
51782.0,STARLINK-3616,PAYLOAD,2024-02-25 14:00:01,15.08825305,0.0001529,53.2138,85.2096,87.0394,175.0496,0.0016957,0.00026791,0.0,0 STARLINK-3616,1 51782U 22017Q   24056.58334491  .00026791  00000-0  16957-2 0  9994,2 51782  53.2138  85.2096 0001529  87.0394 175.0496 15.08825305  5829,6917.925,95.438,540.848,538.733,0.0
51782.0,STARLINK-3616,PAYLOAD,2024-02-25 22:00:00,15.08820838,0.0001548,53.214,83.7112,96.52,177.1695,0.0038951,0.00062217,0.0,0 STARLINK-3616,1 51782U 22017Q   24056.91667824  .00062217  00000-0  38951-2 0  9991,2 51782  53.2140  83.7112 0001548  96.5200 177.1695 15.08820838111789,6917.939,95.439,540.875,538.733,0.0
51782.0,STARLINK-3616,PAYLOAD,2024-02-26 00:00:00,15.08827238,0.0001592,53.2139,83.3369,96.6117,269.975,0.0040868,0.00065334,0.0,0 STARLINK-3616,1 51782U 22017Q   24057.00001157  .00065334  00000-0  40868-2 0  9996,2 51782  53.2139  83.3369 0001592  96.6117 269.9750 15.08827238  5835,6917.919,95.438,540.886,538.683,0.0
51782.0,STARLINK-3616,PAYLOAD,2024-02-26 01:33:41,15.08845662,0.0001695,53.2154,83.0475,87.7544,272.3642,0.00018636,2.68e-05,0.0,0 STARLINK-3616,1 51782U 22017Q   24057.06506260  .00002680  00000-0  18636-3 0  9991,2 51782  53.2154  83.0475 0001695  87.7544 272.3642 15.08845662111800,6917.863,95.437,540.901,538.556,0.0
51782.0,STARLINK-3616,PAYLOAD,2024-02-26 07:55:13,15.08850943,0.0001678,53.2151,81.8581,87.4772,272.6412,0.00021275,3.1e-05,0.0,0 STARLINK-3616,1 51782U 22017Q   24057.33001947  .00003100  00000-0  21275-3 0  9994,2 51782  53.2151  81.8581 0001678  87.4772 272.6412 15.08850943110111,6917.847,95.437,540.873,538.551,0.0
51782.0,STARLINK-3616,PAYLOAD,2024-02-27 04:35:15,15.0883552,0.0001869,53.2161,77.9928,82.4146,277.7058,2.4272e-05,9.8e-07,0.0,0 STARLINK-3616,1 51782U 22017Q   24058.19114756  .00000098  00000-0  24272-4 0  9996,2 51782  53.2161  77.9928 0001869  82.4146 277.7058 15.08835520111976,6917.894,95.438,541.052,538.466,0.0
